[{"OBJECT_NAME":"TROOP-F2","OBJECT_ID":"2024-149CT","EPOCH":"2026-03-09T19:32:55.399776","MEAN_MOTION":15.71081872,"ECCENTRICITY":0.00034643,"INCLINATION":97.3621,"RA_OF_ASC_NODE":159.7382,"ARG_OF_PERICENTER":230.7595,"MEAN_ANOMALY":129.3361,"EPHEMERIS_TYPE":0,"CLASSIFICATION_TYPE":"U","NORAD_CAT_ID":60557,"ELEMENT_SET_NO":999,"REV_AT_EPOCH":8756,"BSTAR":0.001093104,"MEAN_MOTION_DOT":0.00139132,"MEAN_MOTION_DDOT":0},{"OBJECT_NAME":"STARLINK-11423 [DTC]","OBJECT_ID":"2024-209M","EPOCH":"2026-03-09T05:12:30.142656","MEAN_MOTION":15.69743555,"ECCENTRICITY":0.00015964,"INCLINATION":53.1569,"RA_OF_ASC_NODE":13.5943,"ARG_OF_PERICENTER":58.2082,"MEAN_ANOMALY":301.9091,"EPHEMERIS_TYPE":0,"CLASSIFICATION_TYPE":"U","NORAD_CAT_ID":61950,"ELEMENT_SET_NO":999,"REV_AT_EPOCH":7664,"BSTAR":0.0016548447,"MEAN_MOTION_DOT":0.00205215,"MEAN_MOTION_DDOT":0}]
