TROOP-F2                
1 60557U 24149CT  26068.81453008  .00139132  00000+0  10931-2 0  9998
2 60557  97.3621 159.7382 0003464 230.7595 129.3361 15.71081872 87567
STARLINK-11423 [DTC]    
1 61950U 24209M   26068.21701554  .00205215  00000+0  16548-2 0  9995
2 61950  53.1569  13.5943 0001596  58.2082 301.9091 15.69743555 76649
